[{"OBJECT_NAME":"STARLINK-37011","OBJECT_ID":"2026-053L","EPOCH":"2026-04-04T19:20:52.047744","MEAN_MOTION":15.80735564,"ECCENTRICITY":0.0001925,"INCLINATION":97.2834,"RA_OF_ASC_NODE":330.411,"ARG_OF_PERICENTER":70.7534,"MEAN_ANOMALY":289.3942,"EPHEMERIS_TYPE":0,"CLASSIFICATION_TYPE":"U","NORAD_CAT_ID":68217,"ELEMENT_SET_NO":999,"REV_AT_EPOCH":418,"BSTAR":-0.00015498,"MEAN_MOTION_DOT":-0.00029622,"MEAN_MOTION_DDOT":0},{"OBJECT_NAME":"STARLINK-37108","OBJECT_ID":"2026-053M","EPOCH":"2026-04-04T19:19:46.917696","MEAN_MOTION":15.8076873,"ECCENTRICITY":0.0001426,"INCLINATION":97.2836,"RA_OF_ASC_NODE":330.4123,"ARG_OF_PERICENTER":103.7289,"MEAN_ANOMALY":256.4138,"EPHEMERIS_TYPE":0,"CLASSIFICATION_TYPE":"U","NORAD_CAT_ID":68218,"ELEMENT_SET_NO":999,"REV_AT_EPOCH":418,"BSTAR":0.0002716,"MEAN_MOTION_DOT":0.00052081,"MEAN_MOTION_DDOT":0},{"OBJECT_NAME":"STARLINK-37106","OBJECT_ID":"2026-053N","EPOCH":"2026-04-04T19:18:42.048576","MEAN_MOTION":15.80770918,"ECCENTRICITY":0.0001689,"INCLINATION":97.2835,"RA_OF_ASC_NODE":330.4134,"ARG_OF_PERICENTER":68.6855,"MEAN_ANOMALY":291.4593,"EPHEMERIS_TYPE":0,"CLASSIFICATION_TYPE":"U","NORAD_CAT_ID":68219,"ELEMENT_SET_NO":999,"REV_AT_EPOCH":418,"BSTAR":0.00026951,"MEAN_MOTION_DOT":0.00051683,"MEAN_MOTION_DDOT":0},{"OBJECT_NAME":"STARLINK-37030","OBJECT_ID":"2026-053P","EPOCH":"2026-04-04T19:16:32.083104","MEAN_MOTION":15.80771189,"ECCENTRICITY":0.0001803,"INCLINATION":97.2835,"RA_OF_ASC_NODE":330.4147,"ARG_OF_PERICENTER":88.454,"MEAN_ANOMALY":271.6935,"EPHEMERIS_TYPE":0,"CLASSIFICATION_TYPE":"U","NORAD_CAT_ID":68220,"ELEMENT_SET_NO":999,"REV_AT_EPOCH":418,"BSTAR":0.00020432,"MEAN_MOTION_DOT":0.00039093,"MEAN_MOTION_DDOT":0},{"OBJECT_NAME":"STARLINK-37012","OBJECT_ID":"2026-053Q","EPOCH":"2026-04-04T19:17:37.222656","MEAN_MOTION":15.80754565,"ECCENTRICITY":0.0001237,"INCLINATION":97.2836,"RA_OF_ASC_NODE":330.4141,"ARG_OF_PERICENTER":64.2633,"MEAN_ANOMALY":295.8762,"EPHEMERIS_TYPE":0,"CLASSIFICATION_TYPE":"U","NORAD_CAT_ID":68221,"ELEMENT_SET_NO":999,"REV_AT_EPOCH":418,"BSTAR":0.00026188,"MEAN_MOTION_DOT":0.00050169,"MEAN_MOTION_DDOT":0},{"OBJECT_NAME":"STARLINK-37110","OBJECT_ID":"2026-053R","EPOCH":"2026-04-04T20:46:36.361632","MEAN_MOTION":15.80835096,"ECCENTRICITY":0.0002103,"INCLINATION":97.283,"RA_OF_ASC_NODE":330.4825,"ARG_OF_PERICENTER":116.4827,"MEAN_ANOMALY":243.6657,"EPHEMERIS_TYPE":0,"CLASSIFICATION_TYPE":"U","NORAD_CAT_ID":68222,"ELEMENT_SET_NO":999,"REV_AT_EPOCH":419,"BSTAR":0.0010436,"MEAN_MOTION_DOT":0.00204709,"MEAN_MOTION_DDOT":0},{"OBJECT_NAME":"STARLINK-37025","OBJECT_ID":"2026-053S","EPOCH":"2026-04-04T19:14:22.291296","MEAN_MOTION":15.80769161,"ECCENTRICITY":0.0001757,"INCLINATION":97.2836,"RA_OF_ASC_NODE":330.4163,"ARG_OF_PERICENTER":84.2029,"MEAN_ANOMALY":275.9439,"EPHEMERIS_TYPE":0,"CLASSIFICATION_TYPE":"U","NORAD_CAT_ID":68223,"ELEMENT_SET_NO":999,"REV_AT_EPOCH":418,"BSTAR":0.0001847,"MEAN_MOTION_DOT":0.00035305,"MEAN_MOTION_DDOT":0},{"OBJECT_NAME":"STARLINK-36977","OBJECT_ID":"2026-053T","EPOCH":"2026-04-04T20:00:01.999008","MEAN_MOTION":15.79588561,"ECCENTRICITY":0.0001318,"INCLINATION":97.2841,"RA_OF_ASC_NODE":330.449,"ARG_OF_PERICENTER":98.66,"MEAN_ANOMALY":80.5062,"EPHEMERIS_TYPE":0,"CLASSIFICATION_TYPE":"U","NORAD_CAT_ID":68224,"ELEMENT_SET_NO":999,"REV_AT_EPOCH":410,"BSTAR":3.6893e-5,"MEAN_MOTION_DOT":6.55e-5,"MEAN_MOTION_DDOT":0},{"OBJECT_NAME":"STARLINK-36960","OBJECT_ID":"2026-053U","EPOCH":"2026-04-04T19:12:12.317184","MEAN_MOTION":15.80782607,"ECCENTRICITY":0.0001355,"INCLINATION":97.2837,"RA_OF_ASC_NODE":330.4177,"ARG_OF_PERICENTER":96.3944,"MEAN_ANOMALY":263.7479,"EPHEMERIS_TYPE":0,"CLASSIFICATION_TYPE":"U","NORAD_CAT_ID":68225,"ELEMENT_SET_NO":999,"REV_AT_EPOCH":416,"BSTAR":0.0003193,"MEAN_MOTION_DOT":0.00061357,"MEAN_MOTION_DDOT":0},{"OBJECT_NAME":"STARLINK-37038","OBJECT_ID":"2026-053V","EPOCH":"2026-04-04T19:10:02.251488","MEAN_MOTION":15.80798012,"ECCENTRICITY":0.0001469,"INCLINATION":97.2833,"RA_OF_ASC_NODE":330.4194,"ARG_OF_PERICENTER":90.1486,"MEAN_ANOMALY":269.995,"EPHEMERIS_TYPE":0,"CLASSIFICATION_TYPE":"U","NORAD_CAT_ID":68226,"ELEMENT_SET_NO":999,"REV_AT_EPOCH":416,"BSTAR":0.00055742,"MEAN_MOTION_DOT":0.00107872,"MEAN_MOTION_DDOT":0},{"OBJECT_NAME":"STARLINK-37083","OBJECT_ID":"2026-053W","EPOCH":"2026-04-04T19:11:07.240704","MEAN_MOTION":15.80771711,"ECCENTRICITY":0.0002266,"INCLINATION":97.2832,"RA_OF_ASC_NODE":330.4192,"ARG_OF_PERICENTER":132.1313,"MEAN_ANOMALY":228.0148,"EPHEMERIS_TYPE":0,"CLASSIFICATION_TYPE":"U","NORAD_CAT_ID":68227,"ELEMENT_SET_NO":999,"REV_AT_EPOCH":415,"BSTAR":0.00010717,"MEAN_MOTION_DOT":0.00020394,"MEAN_MOTION_DDOT":0},{"OBJECT_NAME":"STARLINK-37050","OBJECT_ID":"2026-053X","EPOCH":"2026-04-04T19:08:57.424704","MEAN_MOTION":15.80774851,"ECCENTRICITY":0.0001313,"INCLINATION":97.2839,"RA_OF_ASC_NODE":330.4211,"ARG_OF_PERICENTER":86.2141,"MEAN_ANOMALY":273.9277,"EPHEMERIS_TYPE":0,"CLASSIFICATION_TYPE":"U","NORAD_CAT_ID":68228,"ELEMENT_SET_NO":999,"REV_AT_EPOCH":416,"BSTAR":0.00017464,"MEAN_MOTION_DOT":0.00033375,"MEAN_MOTION_DDOT":0},{"OBJECT_NAME":"STARLINK-37081","OBJECT_ID":"2026-053Y","EPOCH":"2026-04-04T19:37:15.107808","MEAN_MOTION":15.75036064,"ECCENTRICITY":0.0001879,"INCLINATION":97.2843,"RA_OF_ASC_NODE":330.3954,"ARG_OF_PERICENTER":95.4043,"MEAN_ANOMALY":264.7437,"EPHEMERIS_TYPE":0,"CLASSIFICATION_TYPE":"U","NORAD_CAT_ID":68229,"ELEMENT_SET_NO":999,"REV_AT_EPOCH":418,"BSTAR":-0.0012969,"MEAN_MOTION_DOT":-0.00188135,"MEAN_MOTION_DDOT":0},{"OBJECT_NAME":"STARLINK-37100","OBJECT_ID":"2026-053Z","EPOCH":"2026-04-04T19:07:52.590144","MEAN_MOTION":15.80792212,"ECCENTRICITY":7.21e-5,"INCLINATION":97.2834,"RA_OF_ASC_NODE":330.4226,"ARG_OF_PERICENTER":125.0145,"MEAN_ANOMALY":235.1191,"EPHEMERIS_TYPE":0,"CLASSIFICATION_TYPE":"U","NORAD_CAT_ID":68230,"ELEMENT_SET_NO":999,"REV_AT_EPOCH":418,"BSTAR":0.00058605,"MEAN_MOTION_DOT":0.0011346,"MEAN_MOTION_DDOT":0},{"OBJECT_NAME":"STARLINK-37104","OBJECT_ID":"2026-053AA","EPOCH":"2026-04-04T19:06:47.428128","MEAN_MOTION":15.80778984,"ECCENTRICITY":6.01e-5,"INCLINATION":97.2838,"RA_OF_ASC_NODE":330.4231,"ARG_OF_PERICENTER":18.9381,"MEAN_ANOMALY":341.191,"EPHEMERIS_TYPE":0,"CLASSIFICATION_TYPE":"U","NORAD_CAT_ID":68231,"ELEMENT_SET_NO":999,"REV_AT_EPOCH":418,"BSTAR":0.00026673,"MEAN_MOTION_DOT":0.00051161,"MEAN_MOTION_DDOT":0},{"OBJECT_NAME":"STARLINK-37027","OBJECT_ID":"2026-054A","EPOCH":"2026-04-04T16:44:35.531808","MEAN_MOTION":15.75206833,"ECCENTRICITY":0.000151,"INCLINATION":53.1599,"RA_OF_ASC_NODE":182.5944,"ARG_OF_PERICENTER":84.14,"MEAN_ANOMALY":275.9792,"EPHEMERIS_TYPE":0,"CLASSIFICATION_TYPE":"U","NORAD_CAT_ID":68232,"ELEMENT_SET_NO":999,"REV_AT_EPOCH":288,"BSTAR":0.00049384,"MEAN_MOTION_DOT":0.00075634,"MEAN_MOTION_DDOT":0},{"OBJECT_NAME":"STARLINK-37132","OBJECT_ID":"2026-054B","EPOCH":"2026-04-04T17:42:27.833760","MEAN_MOTION":15.80858397,"ECCENTRICITY":0.0001012,"INCLINATION":53.1585,"RA_OF_ASC_NODE":182.1241,"ARG_OF_PERICENTER":63.9307,"MEAN_ANOMALY":296.1819,"EPHEMERIS_TYPE":0,"CLASSIFICATION_TYPE":"U","NORAD_CAT_ID":68233,"ELEMENT_SET_NO":999,"REV_AT_EPOCH":289,"BSTAR":0.00074599,"MEAN_MOTION_DOT":0.00149,"MEAN_MOTION_DDOT":0}]
