STARLINK-37011          
1 68217U 26053L   26094.80615796 -.00029622  00000+0 -15498-3 0  9995
2 68217  97.2834 330.4110 0001925  70.7534 289.3942 15.80735564  4188
STARLINK-37108          
1 68218U 26053M   26094.80540414  .00052081  00000+0  27160-3 0  9992
2 68218  97.2836 330.4123 0001426 103.7289 256.4138 15.80768730  4188
STARLINK-37106          
1 68219U 26053N   26094.80465334  .00051683  00000+0  26951-3 0  9994
2 68219  97.2835 330.4134 0001689  68.6855 291.4593 15.80770918  4184
STARLINK-37030          
1 68220U 26053P   26094.80314911  .00039093  00000+0  20432-3 0  9999
2 68220  97.2835 330.4147 0001803  88.4540 271.6935 15.80771189  4180
STARLINK-37012          
1 68221U 26053Q   26094.80390304  .00050169  00000+0  26188-3 0  9991
2 68221  97.2836 330.4141 0001237  64.2633 295.8762 15.80754565  4187
STARLINK-37110          
1 68222U 26053R   26094.86569863  .00204709  00000+0  10436-2 0  9995
2 68222  97.2830 330.4825 0002103 116.4827 243.6657 15.80835096  4193
STARLINK-37025          
1 68223U 26053S   26094.80164689  .00035305  00000+0  18470-3 0  9998
2 68223  97.2836 330.4163 0001757  84.2029 275.9439 15.80769161  4189
STARLINK-36977          
1 68224U 26053T   26094.83335647  .00006550  00000+0  36893-4 0  9996
2 68224  97.2841 330.4490 0001318  98.6600  80.5062 15.79588561  4101
STARLINK-36960          
1 68225U 26053U   26094.80014256  .00061357  00000+0  31930-3 0  9996
2 68225  97.2837 330.4177 0001355  96.3944 263.7479 15.80782607  4168
STARLINK-37038          
1 68226U 26053V   26094.79863717  .00107872  00000+0  55742-3 0  9999
2 68226  97.2833 330.4194 0001469  90.1486 269.9950 15.80798012  4162
STARLINK-37083          
1 68227U 26053W   26094.79938936  .00020394  00000+0  10717-3 0  9992
2 68227  97.2832 330.4192 0002266 132.1313 228.0148 15.80771711  4153
STARLINK-37050          
1 68228U 26053X   26094.79788686  .00033375  00000+0  17464-3 0  9997
2 68228  97.2839 330.4211 0001313  86.2141 273.9277 15.80774851  4164
STARLINK-37081          
1 68229U 26053Y   26094.81753597 -.00188135  00000+0 -12969-2 0  9995
2 68229  97.2843 330.3954 0001879  95.4043 264.7437 15.75036064  4182
STARLINK-37100          
1 68230U 26053Z   26094.79713646  .00113460  00000+0  58605-3 0  9990
2 68230  97.2834 330.4226 0000721 125.0145 235.1191 15.80792212  4184
STARLINK-37104          
1 68231U 26053AA  26094.79638227  .00051161  00000+0  26673-3 0  9991
2 68231  97.2838 330.4231 0000601  18.9381 341.1910 15.80778984  4181
STARLINK-37027          
1 68232U 26054A   26094.69763347  .00075634  00000+0  49384-3 0  9999
2 68232  53.1599 182.5944 0001510  84.1400 275.9792 15.75206833  2881
STARLINK-37132          
1 68233U 26054B   26094.73782215  .00149000  00000+0  74599-3 0  9995
2 68233  53.1585 182.1241 0001012  63.9307 296.1819 15.80858397  2891
